OBJECT_NAME,OBJECT_ID,EPOCH,MEAN_MOTION,ECCENTRICITY,INCLINATION,RA_OF_ASC_NODE,ARG_OF_PERICENTER,MEAN_ANOMALY,EPHEMERIS_TYPE,CLASSIFICATION_TYPE,NORAD_CAT_ID,ELEMENT_SET_NO,REV_AT_EPOCH,BSTAR,MEAN_MOTION_DOT,MEAN_MOTION_DDOT
COSMOS 2534 (758),2019-030A,2026-06-24T12:18:01.016064,2.13102365,.00134625,64.3690,192.3697,274.9296,83.9383,0,U,44299,999,5507,0,.105E-5,0
BEIDOU-3 IGSO-2 (C39),2019-035A,2026-06-23T20:41:38.697216,1.00264372,.00394231,55.2489,158.8038,216.4706,326.6444,0,U,44337,999,2573,0,-.62E-6,0
GPS BIII-2  (PRN 18),2019-056A,2026-06-24T20:45:29.039616,2.00570127,.00623662,55.6332,330.8369,197.6681,333.6103,0,U,44506,999,5022,0,-.105E-5,0
BEIDOU-3 M24 (C46),2019-061A,2026-06-22T14:41:16.365408,1.86229121,.00084477,54.3965,182.5445,358.6197,1.4065,0,U,44542,999,4589,0,.94E-6,0
BEIDOU-3 M23 (C45),2019-061B,2026-06-23T13:15:09.144288,1.86227312,.00058235,54.3954,182.4810,338.7823,203.1503,0,U,44543,999,4591,0,.102E-5,0
EUTELSAT 5 WEST B (EGNOS/PRN 121),2019-067A,2026-06-25T05:38:38.624928,1.00271360,.00033639,0.0621,2.3428,91.4060,259.2854,0,U,44624,999,2451,0,-.33E-6,0
BEIDOU-3 M22 (C44),2019-078A,2026-06-22T23:43:57.808992,1.86227077,.00062495,53.9301,299.6233,51.2109,308.8401,0,U,44793,999,4475,0,-.107E-5,0
BEIDOU-3 M21 (C43),2019-078B,2026-06-20T10:39:18.276192,1.86227692,.00039213,53.9054,299.6746,48.8810,311.1504,0,U,44794,999,4471,0,-.92E-6,0
COSMOS 2544 (759),2019-088A,2026-06-24T01:38:18.774240,2.13102868,.00129437,65.5696,73.5010,257.9602,101.9270,0,U,44850,999,5086,0,-.68E-6,0
BEIDOU-3 M19 (C41),2019-090A,2026-06-24T06:00:48.320064,1.86231520,.00175865,56.5650,62.5564,297.6479,291.8664,0,U,44864,999,4436,0,-.95E-6,0
BEIDOU-3 M20 (C42),2019-090B,2026-06-24T02:41:48.318720,1.86231501,.00153707,56.5667,62.5955,311.9218,274.5279,0,U,44865,999,4434,0,-.95E-6,0
BEIDOU-3 G2 (C60),2020-017A,2026-06-25T07:50:38.081760,1.00272014,.0002469,2.8810,47.4868,36.7128,27.0150,0,U,45344,999,2334,0,-.134E-5,0
COSMOS 2545 (760),2020-018A,2026-06-22T09:16:10.221888,2.13102345,.00085514,64.3518,312.2361,229.7005,130.2180,0,U,45358,999,4877,0,-.76E-6,0
BEIDOU-3 G3 (C61),2020-040A,2026-06-25T07:59:32.508960,1.00275241,.00026591,2.4677,67.4740,326.5246,109.8765,0,U,45807,999,2215,0,-.346E-5,0
GPS BIII-3  (PRN 23),2020-041A,2026-06-24T17:08:03.225408,2.00558689,.00644566,56.6750,28.6507,204.5351,155.8006,0,U,45854,999,4419,0,-.91E-6,0
GALAXY 30 (WAAS/PRN 135),2020-056C,2026-06-24T17:11:02.937408,1.00270732,.00022205,0.0130,51.5985,38.3382,315.6757,0,U,46114,999,2136,0,.46E-6,0
COSMOS 2547 (705K),2020-075A,2026-06-23T01:04:53.845824,2.13100075,.00093897,64.5998,192.2800,239.8936,120.0622,0,U,46805,999,4403,0,.94E-6,0
GPS BIII-4  (PRN 14),2020-078A,2026-06-24T17:56:32.861184,2.00565079,.00737729,53.9789,210.4716,207.4288,153.8202,0,U,46826,999,4166,0,.75E-6,0
GPS BIII-5  (PRN 11),2021-054A,2026-06-24T17:40:45.713280,2.00568778,.00256408,55.1704,332.1556,228.3244,311.3011,0,U,48859,999,3690,0,-.105E-5,0
QZS-1R (QZSS/PRN 196),2021-096A,2026-06-24T16:28:25.584672,1.00253611,.07554141,37.4769,79.4708,271.9402,302.0045,0,U,49336,999,1708,0,-.314E-5,0
GSAT0223 (GALILEO 27),2021-116A,2026-06-23T10:34:17.397696,1.70476308,.00016008,57.1590,341.5051,183.5383,174.0725,0,U,49809,999,2828,0,-.98E-6,0
GSAT0224 (GALILEO 28),2021-116B,2026-06-24T10:32:12.119424,1.70476440,.00013378,57.1587,341.4772,159.4629,203.6086,0,U,49810,999,2833,0,-.98E-6,0
COSMOS 2557 (706K),2022-075A,2026-06-22T06:29:57.729120,2.13102021,.00103034,64.2952,314.3058,273.7574,86.1177,0,U,52984,999,3082,0,-.76E-6,0
COSMOS 2559 (707K),2022-130A,2026-06-23T23:13:10.532928,2.13101763,.00126998,64.2669,314.3295,178.7771,181.2176,0,U,54031,999,2883,0,-.84E-6,0
COSMOS 2564 (761),2022-161A,2026-06-24T06:43:11.408160,2.13102100,.00122466,64.7424,192.4762,224.9947,134.9582,0,U,54377,999,2778,0,.104E-5,0
GPS BIII-6  (PRN 28),2023-009A,2026-06-24T22:27:29.785824,2.00571146,.00063338,55.1239,148.2141,317.2838,44.5224,0,U,55268,999,2540,0,.55E-6,0
BEIDOU-3 G4 (C62),2023-066A,2026-06-25T06:25:15.864672,1.00271682,.00047288,0.4777,333.5966,175.7491,0.4370,0,U,56564,999,1147,0,-.271E-5,0
NVS-01 (IRNSS-1J),2023-076A,2026-06-25T06:22:16.151808,1.00275599,.00028383,2.1468,243.9686,14.0924,240.4344,0,U,56759,999,1119,0,-.323E-5,0
COSMOS 2569 (703K),2023-114A,2026-06-21T22:42:15.534432,2.13103733,.00104833,65.3047,72.4599,296.8456,63.0820,0,U,57517,999,2236,0,-.57E-6,0
BEIDOU-3 M28 (C50),2023-207A,2026-06-24T19:36:01.938240,1.86229863,.00030303,55.7594,62.0455,351.9089,8.1238,0,U,58654,999,1698,0,-.96E-6,0
BEIDOU-3 M26 (C48),2023-207B,2026-06-24T14:44:25.652256,1.86229838,.00027788,55.7615,62.0389,321.7862,38.2312,0,U,58655,999,1696,0,-.96E-6,0
